NORAD_CAT_ID,OBJECT_NAME,OBJECT_TYPE,EPOCH,MEAN_MOTION,ECCENTRICITY,INCLINATION,RA_OF_ASC_NODE,ARG_OF_PERICENTER,MEAN_ANOMALY,BSTAR,MEAN_MOTION_DOT,MEAN_MOTION_DDOT,TLE_LINE0,TLE_LINE1,TLE_LINE2,SEMIMAJOR_AXIS,PERIOD,APOGEE,PERIGEE,DECAYED
51120.0,STARLINK-3398,PAYLOAD,2023-12-02 12:32:19,15.08879479,0.0001537,53.2167,46.921,105.6053,254.5109,0.00072613,0.000113,0.0,0 STARLINK-3398,1 51120U 22005S   23336.52244560  .00011300  00000-0  72613-3 0  9990,2 51120  53.2167  46.9210 0001537 105.6053 254.5109 15.08879479103854,6917.76,95.435,540.688,538.561,0.0
51120.0,STARLINK-3398,PAYLOAD,2023-12-03 04:26:11,15.08832935,0.0001605,53.2172,43.9452,102.2181,257.8991,-0.00032028,-5.381e-05,0.0,0 STARLINK-3398,1 51120U 22005S   23337.18486096 -.00005381  00000-0 -32028-3 0  9995,2 51120  53.2172  43.9452 0001605 102.2181 257.8991 15.08832935105062,6917.902,95.438,540.877,538.657,0.0
51120.0,STARLINK-3398,PAYLOAD,2023-12-03 10:47:46,15.0879076,0.000127,53.2171,42.7534,98.1062,262.0074,-0.0010063,-0.00016246,0.0,0 STARLINK-3398,1 51120U 22005S   23337.44983923 -.00016246  00000-0 -10063-2 0  9991,2 51120  53.2171  42.7534 0001270  98.1062 262.0074 15.08790760105102,6918.031,95.441,540.774,539.017,0.0
51120.0,STARLINK-3398,PAYLOAD,2023-12-03 13:58:32,15.08788942,0.000124,53.2171,42.1583,96.1551,263.9583,-0.00092939,-0.00015028,0.0,0 STARLINK-3398,1 51120U 22005S   23337.58232394 -.00015028  00000-0 -92939-3 0  9995,2 51120  53.2171  42.1583 0001240  96.1551 263.9583 15.08788942104011,6918.036,95.441,540.759,539.044,0.0
51120.0,STARLINK-3398,PAYLOAD,2023-12-04 10:38:32,15.08858722,0.0001728,53.2181,38.2945,127.1954,232.9197,0.00037791,5.735e-05,0.0,0 STARLINK-3398,1 51120U 22005S   23338.44342690  .00005735  00000-0  37791-3 0  9999,2 51120  53.2181  38.2945 0001728 127.1954 232.9197 15.08858722105251,6917.823,95.436,540.884,538.493,0.0
51120.0,STARLINK-3398,PAYLOAD,2023-12-04 13:49:18,15.08862201,0.0001415,53.2184,37.6988,76.8737,283.2413,0.00027248,4.054e-05,0.0,0 STARLINK-3398,1 51120U 22005S   23338.57590410  .00004054  00000-0  27248-3 0  9997,2 51120  53.2184  37.6988 0001415  76.8737 283.2413 15.08862201104162,6917.813,95.436,540.656,538.699,0.0
51120.0,STARLINK-3398,PAYLOAD,2023-12-05 04:07:47,15.08831256,0.0001776,53.2192,35.0141,133.2754,226.8386,0.00066777,0.00010353,0.0,0 STARLINK-3398,1 51120U 22005S   23339.17208271  .00010353  00000-0  66777-3 0  9994,2 51120  53.2192  35.0141 0001776 133.2754 226.8386 15.08831256105362,6917.907,95.438,541.001,538.543,0.0
51120.0,STARLINK-3398,PAYLOAD,2023-12-05 10:29:20,15.08838969,0.0001306,53.2183,33.833,93.0677,267.0464,0.00070845,0.00011005,0.0,0 STARLINK-3398,1 51120U 22005S   23339.43704383  .00011005  00000-0  70845-3 0  9994,2 51120  53.2183  33.8330 0001306  93.0677 267.0464 15.08838969104297,6917.884,95.438,540.652,538.845,0.0
51120.0,STARLINK-3398,PAYLOAD,2023-12-06 10:20:06,15.08849736,0.0001372,53.2186,29.3757,98.3759,261.7389,-0.00014289,-2.562e-05,0.0,0 STARLINK-3398,1 51120U 22005S   23340.43063082 -.00002562  00000-0 -14289-3 0  9990,2 51120  53.2186  29.3757 0001372  98.3759 261.7389 15.08849736105556,6917.851,95.437,540.665,538.767,0.0
51120.0,STARLINK-3398,PAYLOAD,2023-12-07 03:49:21,15.08843219,0.0001333,53.2189,26.1025,98.743,261.3713,1.4681e-05,-5.4e-07,0.0,0 STARLINK-3398,1 51120U 22005S   23341.15927405 -.00000054  00000-0  14681-4 0  9998,2 51120  53.2189  26.1025 0001333  98.7430 261.3713 15.08843219105668,6917.871,95.437,540.658,538.813,0.0
51120.0,STARLINK-3398,PAYLOAD,2023-12-07 10:10:53,15.08845909,0.0001456,53.2191,24.9156,96.5873,263.5285,4.4261e-05,4.17e-06,0.0,0 STARLINK-3398,1 51120U 22005S   23341.42423018  .00000417  00000-0  44261-4 0  9998,2 51120  53.2191  24.9156 0001456  96.5873 263.5285 15.08845909104592,6917.862,95.437,540.735,538.72,0.0
51120.0,STARLINK-3398,PAYLOAD,2023-12-08 11:37:04,15.08821724,0.0001561,53.219,20.1557,103.0571,257.0595,0.00023598,3.468e-05,0.0,0 STARLINK-3398,1 51120U 22005S   23342.48408083  .00003468  00000-0  23598-3 0  9998,2 51120  53.2190  20.1557 0001561 103.0571 257.0595 15.08821724105862,6917.936,95.439,540.881,538.721,0.0
51120.0,STARLINK-3398,PAYLOAD,2023-12-09 11:27:51,15.08839855,0.0001475,53.2184,15.6943,97.597,262.5189,4.2859e-05,3.94e-06,0.0,0 STARLINK-3398,1 51120U 22005S   23343.47767687  .00000394  00000-0  42859-4 0  9993,2 51120  53.2184  15.6943 0001475  97.5970 262.5189 15.08839855106019,6917.881,95.438,540.766,538.725,0.0
51120.0,STARLINK-3398,PAYLOAD,2023-12-10 11:18:38,15.08838957,0.000147,53.2186,11.2299,86.494,273.6221,7.5422e-05,9.13e-06,0.0,0 STARLINK-3398,1 51120U 22005S   23344.47127845  .00000913  00000-0  75422-4 0  9999,2 51120  53.2186  11.2299 0001470  86.4940 273.6221 15.08838957105051,6917.884,95.438,540.766,538.732,0.0
51120.0,STARLINK-3398,PAYLOAD,2023-12-11 07:58:39,15.08838872,0.0001491,53.2183,7.3628,81.3032,278.8129,2.64e-05,1.32e-06,0.0,0 STARLINK-3398,1 51120U 22005S   23345.33240176  .00000132  00000-0  26400-4 0  9993,2 51120  53.2183   7.3628 0001491  81.3032 278.8129 15.08838872106296,6917.884,95.438,540.78,538.717,0.0
51120.0,STARLINK-3398,PAYLOAD,2023-12-12 07:49:25,15.08843404,0.0001523,53.2183,2.9046,95.1404,264.9762,0.00011467,1.538e-05,0.0,0 STARLINK-3398,1 51120U 22005S   23346.32599504  .00001538  00000-0  11467-3 0  9992,2 51120  53.2183   2.9046 0001523  95.1404 264.9762 15.08843404106446,6917.87,95.437,540.789,538.681,0.0
51120.0,STARLINK-3398,PAYLOAD,2023-12-13 07:40:13,15.08839694,0.0001537,53.2185,358.4427,93.1962,266.9206,2.1724e-05,5.8e-07,0.0,0 STARLINK-3398,1 51120U 22005S   23347.31960006  .00000058  00000-0  21724-4 0  9995,2 51120  53.2185 358.4427 0001537  93.1962 266.9206 15.08839694106599,6917.881,95.438,540.81,538.683,0.0
51120.0,STARLINK-3398,PAYLOAD,2023-12-14 07:31:00,15.08841096,0.00016,53.2186,353.9841,99.4059,260.7114,2.1023e-05,4.7e-07,0.0,0 STARLINK-3398,1 51120U 22005S   23348.31319941  .00000047  00000-0  21023-4 0  9992,2 51120  53.2186 353.9841 0001600  99.4059 260.7114 15.08841096105630,6917.877,95.437,540.849,538.635,0.0
51120.0,STARLINK-3398,PAYLOAD,2023-12-15 04:11:01,15.08836206,0.0001586,53.2185,350.1196,101.6969,258.4201,4.0309e-05,3.54e-06,0.0,0 STARLINK-3398,1 51120U 22005S   23349.17432269  .00000354  00000-0  40309-4 0  9995,2 51120  53.2185 350.1196 0001586 101.6969 258.4201 15.08836206106875,6917.892,95.438,540.854,538.66,0.0
51120.0,STARLINK-3398,PAYLOAD,2023-12-15 05:46:24,15.08837081,0.0001578,53.2184,349.822,100.2304,259.8867,4.7634e-05,4.7e-06,0.0,0 STARLINK-3398,1 51120U 22005S   23349.24056217  .00000470  00000-0  47634-4 0  9995,2 51120  53.2184 349.8220 0001578 100.2304 259.8867 15.08837081105779,6917.889,95.438,540.846,538.663,0.0
51120.0,STARLINK-3398,PAYLOAD,2023-12-16 07:12:35,15.08835331,0.0001488,53.2181,345.0661,86.2905,273.8257,3.07e-06,-2.39e-06,0.0,0 STARLINK-3398,1 51120U 22005S   23350.30040999 -.00000239  00000-0  30700-5 0  9995,2 51120  53.2181 345.0661 0001488  86.2905 273.8257 15.08835331107040,6917.895,95.438,540.789,538.73,0.0
51120.0,STARLINK-3398,PAYLOAD,2023-12-17 07:03:22,15.088358,0.0001475,53.2178,340.6095,77.7581,282.3576,7.6461e-05,9.29e-06,0.0,0 STARLINK-3398,1 51120U 22005S   23351.29401203  .00000929  00000-0  76461-4 0  9991,2 51120  53.2178 340.6095 0001475  77.7581 282.3576 15.08835800106082,6917.893,95.438,540.779,538.738,0.0
51120.0,STARLINK-3398,PAYLOAD,2023-12-18 03:43:22,15.08848611,0.0001439,53.2179,336.7431,78.9996,281.1158,0.00017168,2.446e-05,0.0,0 STARLINK-3398,1 51120U 22005S   23352.15512132  .00002446  00000-0  17168-3 0  9995,2 51120  53.2179 336.7431 0001439  78.9996 281.1158 15.08848611107321,6917.854,95.437,540.715,538.724,0.0
51120.0,STARLINK-3398,PAYLOAD,2023-12-18 06:54:08,15.08855215,0.0001809,53.2188,336.1462,66.3697,293.7485,0.00024149,3.559e-05,0.0,0 STARLINK-3398,1 51120U 22005S   23352.28759675  .00003559  00000-0  24149-3 0  9997,2 51120  53.2188 336.1462 0001809  66.3697 293.7485 15.08855215106238,6917.834,95.437,540.95,538.447,0.0
51120.0,STARLINK-3398,PAYLOAD,2023-12-19 03:34:09,15.08852803,0.0001529,53.2179,332.2811,81.8596,278.2569,0.00010157,1.329e-05,0.0,0 STARLINK-3398,1 51120U 22005S   23353.14871634  .00001329  00000-0  10157-3 0  9990,2 51120  53.2179 332.2811 0001529  81.8596 278.2569 15.08852803107470,6917.841,95.437,540.764,538.649,0.0
51120.0,STARLINK-3398,PAYLOAD,2023-12-19 05:09:32,15.08854424,0.0001551,53.2193,331.9811,96.373,263.7439,0.00011312,1.513e-05,0.0,0 STARLINK-3398,1 51120U 22005S   23353.21495448  .00001513  00000-0  11312-3 0  9992,2 51120  53.2193 331.9811 0001551  96.3730 263.7439 15.08854424106372,6917.836,95.437,540.774,538.628,0.0
51120.0,STARLINK-3398,PAYLOAD,2023-12-20 03:24:57,15.08837631,0.0001475,53.2183,327.8197,95.5937,264.5223,-0.00020076,-3.481e-05,0.0,0 STARLINK-3398,1 51120U 22005S   23354.14233368 -.00003481  00000-0 -20076-3 0  9991,2 51120  53.2183 327.8197 0001475  95.5937 264.5223 15.08837631107627,6917.888,95.438,540.773,538.732,0.0
51120.0,STARLINK-3398,PAYLOAD,2023-12-20 05:00:20,15.08837854,0.0001487,53.2182,327.5228,96.713,263.4031,-0.00019556,-3.399e-05,0.0,0 STARLINK-3398,1 51120U 22005S   23354.20857364 -.00003399  00000-0 -19556-3 0  9995,2 51120  53.2182 327.5228 0001487  96.7130 263.4031 15.08837854106529,6917.887,95.438,540.781,538.723,0.0
51120.0,STARLINK-3398,PAYLOAD,2023-12-21 03:15:43,15.0884465,0.0001952,53.2176,323.3615,63.6612,296.458,0.00010778,1.428e-05,0.0,0 STARLINK-3398,1 51120U 22005S   23355.13592537  .00001428  00000-0  10778-3 0  9992,2 51120  53.2176 323.3615 0001952  63.6612 296.4580 15.08844650107776,6917.866,95.437,541.082,538.381,0.0
51120.0,STARLINK-3398,PAYLOAD,2023-12-22 03:06:31,15.08827419,9.88e-05,53.2165,318.892,96.6236,263.4869,-0.00012445,-2.267e-05,0.0,0 STARLINK-3398,1 51120U 22005S   23356.12952743 -.00002267  00000-0 -12445-3 0  9998,2 51120  53.2165 318.8920 0000988  96.6236 263.4869 15.08827419107923,6917.919,95.438,540.467,539.1,0.0
